[{"OBJECT_NAME":"STARLINK-4459","OBJECT_ID":"2022-105Y","EPOCH":"2026-03-09T16:23:57.437088","MEAN_MOTION":15.05648919,"ECCENTRICITY":0.00023334,"INCLINATION":97.6028,"RA_OF_ASC_NODE":311.2495,"ARG_OF_PERICENTER":79.6018,"MEAN_ANOMALY":280.5472,"EPHEMERIS_TYPE":0,"CLASSIFICATION_TYPE":"U","NORAD_CAT_ID":53670,"ELEMENT_SET_NO":999,"REV_AT_EPOCH":19330,"BSTAR":5.6703135e-5,"MEAN_MOTION_DOT":7.57e-6,"MEAN_MOTION_DDOT":0},{"OBJECT_NAME":"CZ-4B DEB","OBJECT_ID":"2008-053K","EPOCH":"2026-03-03T06:56:31.900704","MEAN_MOTION":15.04681815,"ECCENTRICITY":0.00115476,"INCLINATION":97.843,"RA_OF_ASC_NODE":88.8262,"ARG_OF_PERICENTER":63.9062,"MEAN_ANOMALY":296.3351,"EPHEMERIS_TYPE":0,"CLASSIFICATION_TYPE":"U","NORAD_CAT_ID":36289,"ELEMENT_SET_NO":999,"REV_AT_EPOCH":93214,"BSTAR":0.00025594062,"MEAN_MOTION_DOT":3.541e-5,"MEAN_MOTION_DDOT":0}]
